LUDI TANCE 1-01A (L-SA*)
1 51284U 22007A   26167.64331041  .00000521  00000+0  62006-4 0  9990
2 51284  97.8097 175.0711 0001587  90.7332 269.4067 14.88421337238399
LUDI TANCE 1-01B (L-SA*)
1 51822U 22018A   26167.60969303  .00000491  00000+0  58853-4 0  9995
2 51822  97.8103 175.0343 0001618  91.7757 268.3645 14.88417815233620
2022-023F               
1 51951U 22023F   26167.48564954  .00010852  00000+0  43376-3 0  9998
2 51951  63.4457 275.8648 0129894 342.4004  17.2627 15.18072257237603
MERIDIAN 10             
1 52145U 22030A   26166.97322370  .00000181  00000+0  00000+0 0  9996
2 52145  62.6760 140.9333 6783619 272.8539  17.6480  2.00613515 31008
OMNI-L1                 
1 52157U 22033A   26167.16661255  .00001709  00000+0  21801-3 0  9995
2 52157  97.8397 246.3637 0003846 292.8881  67.1926 14.82746056227303
ENMAP                   
1 52159U 22033C   26167.55493775  .00000549  00000+0  89030-4 0  9990
2 52159  97.9800 249.8137 0001404  86.1929 273.9440 14.74988418226569
ARCSAT-1                
1 52161U 22033E   26167.61027528  .00009974  00000+0  15800-3 0  9993
2 52161  97.2756 259.8742 0004927 180.3556 179.7695 15.53604752235619
GLOBAL-18               
1 52196U 22034B   26167.54388873  .00018528  00000+0  37809-3 0  9995
2 52196  52.9818 259.7150 0003120 276.9150  83.1501 15.46262137236863
GAOFEN-3 03             
1 52200U 22035A   26167.60527142  .00000040  00000+0  25417-4 0  9996
2 52200  98.4053 176.1940 0001270  99.2828 260.8505 14.42215161220766
DAQI-1                  
1 52257U 22039A   26167.59622321  .00000096  00000+0  30903-4 0  9992
2 52257  98.1489 106.4608 0002234 256.9462 103.1488 14.57676667221850
BRO-6                   
1 52422U 22047AE  26167.55691877  .00029534  00000+0  51778-3 0  9993
2 52422  97.3404 258.5995 0005085  81.4521 278.7307 15.50514741231054
JILIN-1 GAOFEN 3D27     
1 52444U 22048B   26167.58343190  .00104704  00000+0  69369-3 0  9991
2 52444  97.5715 281.4636 0001082  26.3819 333.7500 15.75208909229386
JILIN-1 GAOFEN 3D28     
1 52445U 22048C   26167.58390925  .00125997  00000+0  72869-3 0  9996
2 52445  97.5653 281.6115 0000557 194.7624 165.3625 15.78246046229432
VIGORIDE-3              
1 52760U 22057AE  26167.62702374  .00004578  00000+0  17407-3 0  9994
2 52760  97.6608 307.5859 0009576 122.1140 238.1029 15.27274790225078
ION SCV-006             
1 52761U 22057AF  26167.38800805  .00010781  00000+0  22711-3 0  9993
2 52761  97.6101 315.9711 0018359 116.3883 243.9252 15.45272415225990
SHERPA-AC1              
1 52763U 22057AH  26167.41556174  .00006397  00000+0  18329-3 0  9994
2 52763  97.6687 316.6091 0008913  95.8498 264.3761 15.36254703225585
OMNI-L2                 
1 52771U 22057AR  26167.44706749  .00001171  00000+0  15593-3 0  9996
2 52771  97.4717 229.8552 0005837 339.6432  20.4549 14.81369134220283
STEP CUBE LAB-II        
1 52897U 22065D   26167.65726645  .00000755  00000+0  15554-3 0  9998
2 52897  98.2223 311.5600 0009323  34.2285 325.9516 14.63303342211426
RANDEV                  
1 52898U 22065E   26167.65848337  .00000754  00000+0  15412-3 0  9994
2 52898  98.2208 311.9126 0008698  34.9222 325.2549 14.63690656211177
SNUGLITE-II             
1 52899U 22065F   26167.62106105  .00000774  00000+0  15573-3 0  9992
2 52899  98.2201 312.4525 0008037  34.6467 325.5258 14.64346784210917
MIMAN                   
1 52900U 22065G   26167.63760936  .00000398  00000+0  89180-4 0  9992
2 52900  98.2259 310.1226 0008257  36.5084 323.6679 14.61843133210368
STARLINK-4362           
1 53043U 22077A   26167.46812334 -.00001638  00000+0 -10952-3 0  9995
2 53043  97.3537 346.4474 0001863 109.7065 250.4364 15.05660894215779
LARES-2                 
1 53105U 22080A   26167.54304696 -.00000016  00000+0  00000+0 0  9991
2 53105  70.1619 305.5499 0005380 334.9817  25.0421  6.38965086 91629
GREENCUBE (IO-117)      
1 53109U 22080E   26164.29338770 -.00000003  00000+0  00000+0 0  9990
2 53109  70.1444 299.5995 0008910 290.4576  69.5127  6.42583230 91811
STARLINK-4410           
1 53204U 22084R   26167.42858397  .00025559  00000+0  87751-3 0  9994
2 53204  97.6023 228.5060 0002474 106.2317 253.9196 15.30119875214892
COSMOS 2558             
1 53323U 22089A   26167.44756144  .00099236  00000+0  66309-3 0  9999
2 53323  97.2263 271.4813 0001074 233.4499 126.6668 15.75029157217714
TECMS                   
1 53346U 22090A   26167.63281525  .00003062  00000+0  13947-3 0  9995
2 53346  97.3139 235.7573 0003393 176.8109 183.3149 15.21404162214728
