OBJECT_NAME,OBJECT_ID,EPOCH,MEAN_MOTION,ECCENTRICITY,INCLINATION,RA_OF_ASC_NODE,ARG_OF_PERICENTER,MEAN_ANOMALY,EPHEMERIS_TYPE,CLASSIFICATION_TYPE,NORAD_CAT_ID,ELEMENT_SET_NO,REV_AT_EPOCH,BSTAR,MEAN_MOTION_DOT,MEAN_MOTION_DDOT
LUDI TANCE 1-01A (L-SAR 01A),2022-007A,2026-06-16T15:26:22.019424,14.88421337,.00015879,97.8097,175.0711,90.7332,269.4067,0,U,51284,999,23839,.62006294E-4,.521E-5,0
LUDI TANCE 1-01B (L-SAR 01B),2022-018A,2026-06-16T14:37:57.477792,14.88417815,.00016186,97.8103,175.0343,91.7757,268.3645,0,U,51822,999,23362,.58852623E-4,.491E-5,0
2022-023F,2022-023F,2026-06-16T11:39:20.120256,15.18072257,.0129894,63.4457,275.8648,342.4004,17.2627,0,U,51951,999,23760,.43375579E-3,.10852E-3,0
MERIDIAN 10,2022-030A,2026-06-15T23:21:26.527680,2.00613515,.67836195,62.6760,140.9333,272.8539,17.6480,0,U,52145,999,3100,0,.181E-5,0
OMNI-L1,2022-033A,2026-06-16T03:59:55.324320,14.82746056,.00038466,97.8397,246.3637,292.8881,67.1926,0,U,52157,999,22730,.21801057E-3,.1709E-4,0
ENMAP,2022-033C,2026-06-16T13:19:06.621600,14.74988418,.00014044,97.9800,249.8137,86.1929,273.9440,0,U,52159,999,22656,.890299E-4,.549E-5,0
ARCSAT-1,2022-033E,2026-06-16T14:38:47.784192,15.53604752,.00049272,97.2756,259.8742,180.3556,179.7695,0,U,52161,999,23561,.15799762E-3,.9974E-4,0
GLOBAL-18,2022-034B,2026-06-16T13:03:11.986272,15.46262137,.00031204,52.9818,259.7150,276.9150,83.1501,0,U,52196,999,23686,.37808902E-3,.18528E-3,0
GAOFEN-3 03,2022-035A,2026-06-16T14:31:35.450688,14.42215161,.00012703,98.4053,176.1940,99.2828,260.8505,0,U,52200,999,22076,.25417311E-4,.4E-6,0
DAQI-1,2022-039A,2026-06-16T14:18:33.685344,14.57676667,.00022347,98.1489,106.4608,256.9462,103.1488,0,U,52257,999,22185,.30903492E-4,.96E-6,0
BRO-6,2022-047AE,2026-06-16T13:21:57.781728,15.50514741,.00050851,97.3404,258.5995,81.4521,278.7307,0,U,52422,999,23105,.51778323E-3,.29534E-3,0
JILIN-1 GAOFEN 3D27,2022-048B,2026-06-16T14:00:08.516160,15.75208909,.00010823,97.5715,281.4636,26.3819,333.7500,0,U,52444,999,22938,.69368511E-3,.104704E-2,0
JILIN-1 GAOFEN 3D28,2022-048C,2026-06-16T14:00:49.759200,15.78246046,.00005579,97.5653,281.6115,194.7624,165.3625,0,U,52445,999,22943,.72869384E-3,.125997E-2,0
VIGORIDE-3,2022-057AE,2026-06-16T15:02:54.851136,15.27274790,.00095767,97.6608,307.5859,122.1140,238.1029,0,U,52760,999,22507,.17406896E-3,.4578E-4,0
ION SCV-006,2022-057AF,2026-06-16T09:18:43.895520,15.45272415,.00183592,97.6101,315.9711,116.3883,243.9252,0,U,52761,999,22599,.22711258E-3,.10781E-3,0
SHERPA-AC1,2022-057AH,2026-06-16T09:58:24.534336,15.36254703,.00089133,97.6687,316.6091,95.8498,264.3761,0,U,52763,999,22558,.18328952E-3,.6397E-4,0
OMNI-L2,2022-057AR,2026-06-16T10:43:46.631136,14.81369134,.00058372,97.4717,229.8552,339.6432,20.4549,0,U,52771,999,22028,.1559342E-3,.1171E-4,0
STEP CUBE LAB-II,2022-065D,2026-06-16T15:46:27.821280,14.63303342,.00093235,98.2223,311.5600,34.2285,325.9516,0,U,52897,999,21142,.15554086E-3,.755E-5,0
RANDEV,2022-065E,2026-06-16T15:48:12.963168,14.63690656,.00086985,98.2208,311.9126,34.9222,325.2549,0,U,52898,999,21117,.15411613E-3,.754E-5,0
SNUGLITE-II,2022-065F,2026-06-16T14:54:19.674720,14.64346784,.00080377,98.2201,312.4525,34.6467,325.5258,0,U,52899,999,21091,.1557316E-3,.774E-5,0
MIMAN,2022-065G,2026-06-16T15:18:09.448704,14.61843133,.00082579,98.2259,310.1226,36.5084,323.6679,0,U,52900,999,21036,.89179848E-4,.398E-5,0
STARLINK-4362,2022-077A,2026-06-16T11:14:05.856576,15.05660894,.00018639,97.3537,346.4474,109.7065,250.4364,0,U,53043,999,21577,-.10951867E-3,-.1638E-4,0
LARES-2,2022-080A,2026-06-16T13:01:59.257344,6.38965086,.00053801,70.1619,305.5499,334.9817,25.0421,0,U,53105,999,9162,0,-.16E-6,0
GREENCUBE (IO-117),2022-080E,2026-06-13T07:02:28.697280,6.42583230,.00089108,70.1444,299.5995,290.4576,69.5127,0,U,53109,999,9181,0,-.3E-7,0
STARLINK-4410,2022-084R,2026-06-16T10:17:09.655008,15.30119875,.00024749,97.6023,228.5060,106.2317,253.9196,0,U,53204,999,21489,.8775083E-3,.25559E-3,0
COSMOS 2558,2022-089A,2026-06-16T10:44:29.308416,15.75029157,.0001074,97.2263,271.4813,233.4499,126.6668,0,U,53323,999,21771,.66309E-3,.99236E-3,0
TECMS,2022-090A,2026-06-16T15:11:15.237600,15.21404162,.00033932,97.3139,235.7573,176.8109,183.3149,0,U,53346,999,21472,.13946784E-3,.3062E-4,0
